STARLINK-6200           
1 56897U 23083X   24037.05672619  .00001548  00000+0  12964-3 0  9995
2 56897  43.0033 265.4499 0001404 268.9643  91.1038 15.02542219 37076
STARLINK-6205           
1 56898U 23083Y   24037.04673605  .00000623  00000+0  61142-4 0  9997
2 56898  43.0027 265.3753 0001251 265.9061  94.1638 15.02546687 37064
STARLINK-6203           
1 56899U 23083Z   24037.05006618  .00001316  00000+0  11244-3 0  9990
2 56899  43.0033 265.3995 0001263 267.1631  92.9067 15.02545607 37063
STARLINK-6207           
1 56900U 23083AA  24036.98396464  .00000993  00000+0  88551-4 0  9991
2 56900  43.0026 253.6287 0001214 273.1204  86.9499 15.02545891 37057
STARLINK-6185           
1 56901U 23083AB  24037.04452264  .00001040  00000+0  92010-4 0  9990
2 56901  43.0033 265.3582 0001347 271.1946  88.8742 15.02538374 37063
STARLINK-6195           
1 56902U 23083AC  24036.98063928 -.00000145  00000+0  43081-5 0  9999
2 56902  43.0029 253.6034 0001413 275.0782  84.9899 15.02540586 37198
STARLINK-6192           
1 56903U 23083AD  24037.04785200  .00000985  00000+0  87986-4 0  9994
2 56903  43.0032 265.3816 0001280 267.9787  92.0909 15.02539018 37064
STARLINK-6193           
1 56904U 23083AE  24037.55563035 -.00000012  00000+0  14194-4 0  9994
2 56904  43.0014 250.1721 0001295 265.0769  94.9926 15.02544081 37175
STARLINK-6183           
1 56905U 23083AF  24036.98618470  .00000778  00000+0  72646-4 0  9999
2 56905  43.0027 253.6460 0001205 270.4224  89.6480 15.02545056 37084
STARLINK-6098           
1 56906U 23083AG  24037.03823224 -.00001582  00000+0 -10204-3 0  9999
2 56906  43.0027 253.1738 0001179 273.4873  86.5835 15.02544286 37096
STARLINK-6110           
1 56907U 23083AH  24036.97509460 -.00000144  00000+0  43869-5 0  9992
2 56907  43.0031 253.5609 0001283 268.3876  91.6820 15.02535415 37191
STARLINK-6186           
1 56908U 23083AJ  24037.03158246 -.00000633  00000+0 -31790-4 0  9996
2 56908  43.0028 253.1228 0001306 271.1990  88.8703 15.02535707 37097
STARLINK-5999           
1 56909U 23083AK  24036.97842151  .00000351  00000+0  41043-4 0  9991
2 56909  43.0026 253.5864 0001231 274.9407  85.1295 15.02536144 37190
STARLINK-6179           
1 56910U 23083AL  24037.02714398  .00000825  00000+0  76131-4 0  9993
2 56910  43.0030 253.0887 0001213 276.0471  84.0233 15.02536841 37094
STARLINK-6116           
1 56911U 23083AM  24037.03601862  .00001268  00000+0  10894-3 0  9991
2 56911  43.0028 253.1564 0001304 266.3292  93.7401 15.02539333 37092
STARLINK-5805           
1 56912U 23083AN  24037.02159145  .00000412  00000+0  45587-4 0  9991
2 56912  43.0033 253.0461 0001179 272.1784  87.8923 15.02538216 37097
STARLINK-5950           
1 56913U 23083AP  24037.03269275  .00000037  00000+0  17797-4 0  9994
2 56913  43.0032 253.1304 0001257 273.0316  87.0382 15.02533324 37098
STARLINK-5961           
1 56914U 23083AQ  24037.01492640  .00001136  00000+0  99104-4 0  9990
2 56914  43.0029 252.9961 0001278 268.6340  91.4356 15.02546187 37092
STARLINK-5965           
1 56915U 23083AR  24037.02935902  .00000442  00000+0  47817-4 0  9998
2 56915  43.0034 253.1040 0001326 268.3147  91.7543 15.02539600 37099
STARLINK-5973           
1 56916U 23083AS  24037.00827691  .00011600  00000+0  87177-3 0  9992
2 56916  43.0018 252.9458 0001476 276.0834  83.9840 15.02561273 37068
STARLINK-5971           
1 56917U 23083AT  24037.01826257  .00011220  00000+0  84373-3 0  9994
2 56917  43.0017 253.0212 0001543 285.1294  74.9377 15.02563053 37090
STARLINK-5951           
1 56918U 23083AU  24037.00716028  .00001515  00000+0  12718-3 0  9998
2 56918  43.0019 252.9366 0001447 270.8472  89.2205 15.02539085 37090
STARLINK-5966           
1 56919U 23083AV  24037.07802370 -.00052799  00000+0 -39091-2 0  9996
2 56919  43.0015 252.6087 0001597 264.8807  95.1854 15.02668357 37108
STARLINK-5960           
1 56920U 23083AW  24037.00049890  .00001249  00000+0  10754-3 0  9999
2 56920  43.0026 252.8857 0001266 261.5142  98.5557 15.02539552 37097
STARLINK-5958           
1 56921U 23083AX  24037.00937918  .00004319  00000+0  33456-3 0  9992
2 56921  43.0016 252.9542 0001383 272.0236  88.0448 15.02543726 37091
STARLINK-5937           
1 56922U 23083AY  24036.99495323  .00001350  00000+0  11496-3 0  9991
2 56922  43.0018 252.8462 0001257 271.8603  88.2095 15.02537734 37091
STARLINK-5952           
1 56923U 23083AZ  24037.00383062  .00000863  00000+0  78942-4 0  9999
2 56923  43.0029 252.9116 0001189 270.5873  89.4833 15.02538071 37098
STARLINK-5731           
1 56924U 23083BA  24036.98940071  .00000223  00000+0  31602-4 0  9997
2 56924  43.0027 252.8031 0001243 267.3982  92.6718 15.02538561 37203
STARLINK-5733           
1 56925U 23083BB  24036.99272137  .00003644  00000+0  28453-3 0  9999
2 56925  43.0028 252.8285 0001228 274.5607  85.5095 15.02558186 37094
STARLINK-5746           
1 56926U 23083BC  24036.99828260  .00000017  00000+0  16348-4 0  9996
2 56926  43.0025 252.8701 0001217 272.0057  88.0646 15.02537039 37099
STARLINK-5808           
1 56927U 23083BD  24037.45488433 -.00001009  00000+0 -32128-4 0  9991
2 56927  43.0030 162.5113 0000881 282.2346  77.8405 15.22585601 38179
STARLINK-5847           
1 57048U 23088A   24037.10943665  .00002520  00000+0  20144-3 0  9997
2 57048  43.0038 291.4911 0001044 259.3904 100.6821 15.02550604 35826
STARLINK-5850           
1 57049U 23088B   24037.11387654  .00003820  00000+0  29758-3 0  9993
2 57049  43.0028 291.5245 0001341 261.6788  98.3903 15.02549626 35841
STARLINK-5845           
1 57050U 23088C   24037.10056158  .00003276  00000+0  25745-3 0  9993
2 57050  43.0028 291.4235 0001307 267.6009  92.4684 15.02542282 35656
STARLINK-5839           
1 57051U 23088D   24037.09945038  .00000973  00000+0  87055-4 0  9990
2 57051  43.0039 291.4144 0001139 269.0604  91.0108 15.02540564 35655
STARLINK-5860           
1 57052U 23088E   24037.10278179  .00001454  00000+0  12267-3 0  9995
2 57052  43.0037 291.4406 0001195 264.7016  95.3690 15.02543031 35651
STARLINK-5865           
1 57053U 23088F   24037.08611551  .00001226  00000+0  10578-3 0  9998
2 57053  43.0035 291.3148 0001362 264.0377  96.0311 15.02549246 35653
STARLINK-5881           
1 57054U 23088G   24037.08057757  .00001581  00000+0  13207-3 0  9997
2 57054  43.0034 291.2733 0001211 259.7074 100.3632 15.02546343 35650
STARLINK-6237           
1 57055U 23088H   24037.09278616  .00001957  00000+0  15982-3 0  9997
2 57055  43.0033 291.3649 0001180 280.1700  79.9010 15.02547019 35658
STARLINK-6353           
1 57056U 23088J   24037.14261798  .00003393  00000+0  26602-3 0  9994
2 57056  43.0037 290.8785 0001271 264.8034  95.2663 15.02548290 35666
STARLINK-6223           
1 57057U 23088K   24037.13928692  .00006783  00000+0  51646-3 0  9999
2 57057  43.0029 290.8319 0001386 273.6231  86.4453 15.02551846 35665
STARLINK-6217           
1 57058U 23088L   24037.07947269  .00000970  00000+0  86852-4 0  9994
2 57058  43.0041 291.2645 0001248 263.5768  96.4932 15.02540848 35659
STARLINK-6211           
1 57059U 23088M   24037.13711942 -.00005476  00000+0 -39113-3 0  9994
2 57059  43.0036 290.8343 0001164 287.5352  72.5364 15.02489371 35664
STARLINK-6227           
1 57060U 23088N   24037.14040132  .00002717  00000+0  21605-3 0  9993
2 57060  43.0030 290.8617 0001365 271.3874  88.6812 15.02543321 35669
STARLINK-5869           
1 57061U 23088P   24037.13040836  .00003093  00000+0  24384-3 0  9999
2 57061  43.0025 290.7849 0001460 263.7023  96.3653 15.02549115 34684
STARLINK-5536           
1 57062U 23088Q   24037.06085963  .00000361  00000+0  41810-4 0  9991
2 57062  43.0034 278.0976 0001200 273.2577  86.8128 15.02541205 35805
STARLINK-5832           
1 57063U 23088R   24037.12263769  .00003946  00000+0  30691-3 0  9997
2 57063  43.0026 290.7248 0001447 262.3436  97.7242 15.02550650 35662
STARLINK-5822           
1 57064U 23088S   24037.13373675  .00001801  00000+0  14835-3 0  9997
2 57064  43.0031 290.8093 0001287 261.9287  98.1409 15.02548368 34683
STARLINK-5830           
1 57065U 23088T   24037.12374899  .00006635  00000+0  50556-3 0  9996
2 57065  43.0027 290.7337 0001423 261.2723  98.7958 15.02552740 34683
STARLINK-5827           
1 57066U 23088U   24037.12596757  .00003065  00000+0  24181-3 0  9995
2 57066  43.0026 290.7504 0001435 258.3764 101.6918 15.02549688 34681
STARLINK-5824           
1 57067U 23088V   24037.11709418  .00014597  00000+0  10931-2 0  9994
2 57067  43.0025 290.6823 0001378 263.6233  96.4453 15.02545036 35667
STARLINK-5844           
1 57068U 23088W   24037.11930710  .00002834  00000+0  22468-3 0  9996
2 57068  43.0026 290.6997 0001362 263.8466  96.2221 15.02549864 35668
STARLINK-5821           
1 57069U 23088X   24037.10636399  .00001449  00000+0  12227-3 0  9995
2 57069  43.0034 278.4548 0001256 264.6147  95.4552 15.02544996 35637
STARLINK-5828           
1 57070U 23088Y   24037.05765054  .00002593  00000+0  20693-3 0  9999
2 57070  43.0032 278.9522 0001288 269.7505  90.3190 15.02543796 35799
STARLINK-5834           
1 57071U 23088Z   24037.04766091  .00000672  00000+0  64776-4 0  9998
2 57071  43.0039 278.8760 0001295 270.1245  89.9449 15.02541082 35624
STARLINK-5843           
1 57072U 23088AA  24037.05320628  .00001219  00000+0  10527-3 0  9994
2 57072  43.0037 278.9152 0001235 270.3739  89.6962 15.02545997 34819
STARLINK-5838           
1 57073U 23088AB  24037.05653869  .00000787  00000+0  73286-4 0  9992
2 57073  43.0043 278.9429 0001184 273.8208  86.2499 15.02540553 34817
STARLINK-5773           
1 57074U 23088AC  24037.11598089  .00014738  00000+0  11033-2 0  9993
2 57074  43.0023 290.6741 0001324 253.9013 106.1684 15.02552417 35667
STARLINK-5542           
1 57075U 23088AD  24037.10303612  .00001921  00000+0  15720-3 0  9997
2 57075  43.0036 278.4297 0001371 266.8049  93.2636 15.02544298 35803
